ONEWEB-0410             
1 51622U 22012A   23318.88763886  .00000045  00000+0  83760-4 0  9990
2 51622  87.9180 193.7660 0002743  81.5324 278.6118 13.17649891 89214
ONEWEB-0411             
1 51623U 22012B   23319.01275233 -.00004716  00000+0 -13547-1 0  9995
2 51623  87.8935 223.9546 0001902  76.3968 283.7371 13.10398002 86788
ONEWEB-0415             
1 51624U 22012C   23318.47500236 -.00000360  00000+0 -10664-2 0  9998
2 51624  87.8932 224.0891 0001541  83.3545 276.7757 13.10371926 85436
ONEWEB-0416             
1 51625U 22012D   23318.71545108 -.00000689  00000+0 -20113-2 0  9997
2 51625  87.8936 224.0276 0001694  69.7357 290.3952 13.10374699 85503
ONEWEB-0422             
1 51626U 22012E   23318.89607836  .00000035  00000+0  57991-4 0  9993
2 51626  87.9177 193.7580 0001252  43.9690 316.1541 13.17650431 89329
ONEWEB-0423             
1 51627U 22012F   23318.88974346  .00000012  00000+0 -26864-5 0  9998
2 51627  87.9241 193.7444 0001580  75.1320 284.9986 13.17646962 89219
ONEWEB-0425             
1 51628U 22012G   23318.49615393  .00000593  00000+0  16613-2 0  9991
2 51628  87.8927 224.0619 0002132  66.4363 293.6988 13.10373516 85474
ONEWEB-0428             
1 51629U 22012H   23318.47664545 -.00000241  00000+0 -72545-3 0  9992
2 51629  87.8931 224.0780 0001345  65.4592 294.6676 13.10376277 85435
